{"type": "FeatureCollection", "features": [ {"type": "Feature", "properties": {"norad_id": 67162, "name": "ARIANE 6 R/B", "group": "last-30-days", "lat": 12.069364154420834, "lon": 116.03000165004845, "alt_km": 22917.905776009422, "timestamp": "2025-12-20T11:30:27.109020+00:00", "meta": {"OBJECT_NAME": "ARIANE 6 R/B", "OBJECT_ID": "2025-302C", "EPOCH": "2025-12-19T07:12:31.071168", "MEAN_MOTION": 1.73130298, "ECCENTRICITY": 2.559e-05, "INCLINATION": 54.2437, "RA_OF_ASC_NODE": 107.222, "ARG_OF_PERICENTER": 160.7324, "MEAN_ANOMALY": 199.2296, "EPHEMERIS_TYPE": 0, "CLASSIFICATION_TYPE": "U", "NORAD_CAT_ID": 67162, "ELEMENT_SET_NO": 999, "REV_AT_EPOCH": 8, "BSTAR": 0, "MEAN_MOTION_DOT": -5e-08, "MEAN_MOTION_DDOT": 0}, "tle": {"line1": "1 67162U 25302C   25353.30035962 -.00000005  00000+0  00000+0 0  9994", "line2": "2 67162  54.2437 107.2220 0000255 160.7324 199.2296  1.73130298    88"}}, "geometry": {"type": "Point", "coordinates": [116.03000165004845, 12.069364154420834]}}, {"type": "Feature", "properties": {"norad_id": 67219, "name": "DISKSAT A", "group": "last-30-days", "lat": 3.553144032413376, "lon": 125.98344528217643, "alt_km": 549.3316232758716, "timestamp": "2025-12-20T11:30:27.109030+00:00", "meta": {"OBJECT_NAME": "DISKSAT A", "OBJECT_ID": "2025-305A", "EPOCH": "2025-12-20T05:57:26.138880", "MEAN_MOTION": 15.05755432, "ECCENTRICITY": 0.0004382, "INCLINATION": 45.0065, "RA_OF_ASC_NODE": 310.7663, "ARG_OF_PERICENTER": 275.4241, "MEAN_ANOMALY": 84.6134, "EPHEMERIS_TYPE": 0, "CLASSIFICATION_TYPE": "U", "NORAD_CAT_ID": 67219, "ELEMENT_SET_NO": 999, "REV_AT_EPOCH": 31, "BSTAR": 5.1191e-05, "MEAN_MOTION_DOT": 5.14e-06, "MEAN_MOTION_DDOT": 0}, "tle": {"line1": "1 67219U 25305A   25354.24821920  .00000514  00000+0  51191-4 0  9997", "line2": "2 67219  45.0065 310.7663 0004382 275.4241  84.6134 15.05755432   312"}}, "geometry": {"type": "Point", "coordinates": [125.98344528217643, 3.553144032413376]}}, {"type": "Feature", "properties": {"norad_id": 67220, "name": "DISKSAT B", "group": "last-30-days", "lat": 3.8415065244278925, "lon": 125.69725488884603, "alt_km": 549.2447113984081, "timestamp": "2025-12-20T11:30:27.109041+00:00", "meta": {"OBJECT_NAME": "DISKSAT B", "OBJECT_ID": "2025-305B", "EPOCH": "2025-12-20T05:57:31.803264", "MEAN_MOTION": 15.05702195, "ECCENTRICITY": 0.0004681, "INCLINATION": 45.0108, "RA_OF_ASC_NODE": 310.7693, "ARG_OF_PERICENTER": 270.4757, "MEAN_ANOMALY": 89.5581, "EPHEMERIS_TYPE": 0, "CLASSIFICATION_TYPE": "U", "NORAD_CAT_ID": 67220, "ELEMENT_SET_NO": 999, "REV_AT_EPOCH": 31, "BSTAR": 5.1086e-05, "MEAN_MOTION_DOT": 5.11e-06, "MEAN_MOTION_DDOT": 0}, "tle": {"line1": "1 67220U 25305B   25354.24828476  .00000511  00000+0  51086-4 0  9992", "line2": "2 67220  45.0108 310.7693 0004681 270.4757  89.5581 15.05702195   312"}}, "geometry": {"type": "Point", "coordinates": [125.69725488884603, 3.8415065244278925]}}, {"type": "Feature", "properties": {"norad_id": 67221, "name": "DISKSAT C", "group": "last-30-days", "lat": 4.186396483070171, "lon": 125.34805523004981, "alt_km": 550.049731030349, "timestamp": "2025-12-20T11:30:27.109052+00:00", "meta": {"OBJECT_NAME": "DISKSAT C", "OBJECT_ID": "2025-305C", "EPOCH": "2025-12-20T05:57:38.927808", "MEAN_MOTION": 15.05646072, "ECCENTRICITY": 0.000464, "INCLINATION": 45.0091, "RA_OF_ASC_NODE": 310.7674, "ARG_OF_PERICENTER": 282.5776, "MEAN_ANOMALY": 77.4579, "EPHEMERIS_TYPE": 0, "CLASSIFICATION_TYPE": "U", "NORAD_CAT_ID": 67221, "ELEMENT_SET_NO": 999, "REV_AT_EPOCH": 30, "BSTAR": 0.00010222, "MEAN_MOTION_DOT": 1.26e-05, "MEAN_MOTION_DDOT": 0}, "tle": {"line1": "1 67221U 25305C   25354.24836722  .00001260  00000+0  10222-3 0  9994", "line2": "2 67221  45.0091 310.7674 0004640 282.5776  77.4579 15.05646072   306"}}, "geometry": {"type": "Point", "coordinates": [125.34805523004981, 4.186396483070171]}}, {"type": "Feature", "properties": {"norad_id": 67222, "name": "DISKSAT D", "group": "last-30-days", "lat": 4.6845411275877815, "lon": 124.84987812383253, "alt_km": 550.3892899986731, "timestamp": "2025-12-20T11:30:27.109063+00:00", "meta": {"OBJECT_NAME": "DISKSAT D", "OBJECT_ID": "2025-305D", "EPOCH": "2025-12-20T04:22:16.163328", "MEAN_MOTION": 15.05557515, "ECCENTRICITY": 0.0004722, "INCLINATION": 45.0104, "RA_OF_ASC_NODE": 311.1213, "ARG_OF_PERICENTER": 283.717, "MEAN_ANOMALY": 76.3178, "EPHEMERIS_TYPE": 0, "CLASSIFICATION_TYPE": "U", "NORAD_CAT_ID": 67222, "ELEMENT_SET_NO": 999, "REV_AT_EPOCH": 29, "BSTAR": 0.00010225, "MEAN_MOTION_DOT": 1.258e-05, "MEAN_MOTION_DDOT": 0}, "tle": {"line1": "1 67222U 25305D   25354.18213152  .00001258  00000+0  10225-3 0  9994", "line2": "2 67222  45.0104 311.1213 0004722 283.7170  76.3178 15.05557515   292"}}, "geometry": {"type": "Point", "coordinates": [124.84987812383253, 4.6845411275877815]}}, {"type": "Feature", "properties": {"norad_id": 67223, "name": "ELECTRON KICK STAGE R/B", "group": "last-30-days", "lat": 17.9678906653357, "lon": 109.83405334154709, "alt_km": 298.3471815505836, "timestamp": "2025-12-20T11:30:27.109074+00:00", "meta": {"OBJECT_NAME": "ELECTRON KICK STAGE R/B", "OBJECT_ID": "2025-305E", "EPOCH": "2025-12-20T06:12:15.244128", "MEAN_MOTION": 15.47983126, "ECCENTRICITY": 0.0179323, "INCLINATION": 44.9975, "RA_OF_ASC_NODE": 310.0187, "ARG_OF_PERICENTER": 148.745, "MEAN_ANOMALY": 212.425, "EPHEMERIS_TYPE": 0, "CLASSIFICATION_TYPE": "U", "NORAD_CAT_ID": 67223, "ELEMENT_SET_NO": 999, "REV_AT_EPOCH": 32, "BSTAR": 0.00016304, "MEAN_MOTION_DOT": 0.00016328, "MEAN_MOTION_DDOT": 0}, "tle": {"line1": "1 67223U 25305E   25354.25850977  .00016328  00000+0  16304-3 0  9993", "line2": "2 67223  44.9975 310.0187 0179323 148.7450 212.4250 15.47983126   321"}}, "geometry": {"type": "Point", "coordinates": [109.83405334154709, 17.9678906653357]}}, {"type": "Feature", "properties": {"norad_id": 67224, "name": "ELECTRON R/B", "group": "last-30-days", "lat": -43.21343352531376, "lon": -121.57275408816876, "alt_km": 201.01004744847614, "timestamp": "2025-12-20T11:30:27.109085+00:00", "meta": {"OBJECT_NAME": "ELECTRON R/B", "OBJECT_ID": "2025-305F", "EPOCH": "2025-12-18T18:27:13.126752", "MEAN_MOTION": 15.64663678, "ECCENTRICITY": 0.0262888, "INCLINATION": 45.0188, "RA_OF_ASC_NODE": 318.3021, "ARG_OF_PERICENTER": 280.1207, "MEAN_ANOMALY": 77.0133, "EPHEMERIS_TYPE": 0, "CLASSIFICATION_TYPE": "U", "NORAD_CAT_ID": 67224, "ELEMENT_SET_NO": 999, "REV_AT_EPOCH": 9, "BSTAR": 0.00022935, "MEAN_MOTION_DOT": 0.00172783, "MEAN_MOTION_DDOT": 8.6369e-06}, "tle": {"line1": "1 67224U 25305F   25352.76890193  .00172783  86369-5  22935-3 0  9995", "line2": "2 67224  45.0188 318.3021 0262888 280.1207  77.0133 15.64663678    93"}}, "geometry": {"type": "Point", "coordinates": [-121.57275408816876, -43.21343352531376]}}]}